satname,norad_id,inclination_deg,eccentricity,mean_motion_rev_per_day,perigee_km,apogee_km,l1,l2
STARLINK-1316,45415,53.1556,0.0003548,15.4022973,443.0097277323748,447.8517313932716,1 45415U 20019BH  26174.79417043  .00042149  00000+0  10368-2 0  9995,2 45415  53.1556 352.7058 0003548 134.3488 225.7808 15.40229730346296
STARLINK-1286,45417,53.0453,0.0002863,15.65822711,368.9414488897619,372.80593241122733,1 45417U 20019BK  26174.83126520  .00055791  00000+0  54124-3 0  9995,2 45417  53.0453 335.8872 0002863 301.2716  58.8018 15.65822711346762
STARLINK-1308,45419,53.0462,0.0006143,15.67286488,362.5275136949831,370.81418461845715,1 45419U 20019BM  26174.90543974  .00049231  00000+0  45096-3 0  9991,2 45419  53.0462 354.7434 0006143  90.6813 269.4906 15.67286488346257
STARLINK-1329,45531,53.04,0.0001757,15.75373262,342.3882269702017,344.7502345396888,1 45531U 20025A   26174.56334917  .00061160  00000+0  39787-3 0  9995,2 45531  53.0400 279.2389 0001757 299.3821  60.7022 15.75373262342069
STARLINK-1338,45532,53.0428,0.0001982,15.72665775,349.94793334294627,352.6154749172638,1 45532U 20025B   26175.00002315 -.00098376  00000+0 -72084-3 0  9998,2 45532  53.0428 284.2907 0001982  63.7992 188.1349 15.72665775  5720
STARLINK-1350,45535,53.0706,0.0001109,15.38635124,449.387184797436,450.9016976210951,1 45535U 20025E   26174.94910503  .00030998  00000+0  80725-3 0  9995,2 45535  53.0706 253.1299 0001109  47.2552 312.8544 15.38635124342501
STARLINK-1362,45538,53.1582,0.0003117,15.38726679,447.7452902051218,452.00187200138134,1 45538U 20025H   26174.72122430  .00013072  00000+0  34610-3 0  9994,2 45538  53.1582 325.5843 0003117 259.3683 100.6970 15.38726679341453
STARLINK-1368,45540,53.1572,0.0002191,15.38876664,447.93399739146935,450.92583721463143,1 45540U 20025K   26174.79828075  .00038762  00000+0  99803-3 0  9990,2 45540  53.1572 325.5756 0002191 222.6430 137.4405 15.38876664341453
STARLINK-1371,45542,53.0417,0.0001552,15.69939299,358.0250496886947,360.11627894770027,1 45542U 20025M   26175.00002315 -.00075842  00000+0 -62079-3 0  9995,2 45542  53.0417 294.5172 0001552  61.6326  82.3090 15.69939299  5862
STARLINK-1372,45543,53.1581,0.0001379,15.39355144,447.0737025915005,448.95635532108554,1 45543U 20025N   26174.81683758  .00045737  00000+0  11565-2 0  9991,2 45543  53.1581 324.9329 0001379 221.5613 138.5287 15.39355144340560
STARLINK-1373,45544,53.0433,0.000201,15.71558859,353.0879630174695,355.7944594583869,1 45544U 20025P   26174.70705780  .00048892  00000+0  37589-3 0  9990,2 45544  53.0433 290.8422 0002010  51.6455 308.4743 15.71558859341919
STARLINK-1327,45555,53.0401,0.0001848,15.73208498,348.4906350408173,350.97725614230785,1 45555U 20025AA  26175.00002315  .00036592  00000+0  26385-3 0  9996,2 45555  53.0401 266.7527 0001848  62.9075 173.9359 15.73208498  5935
STARLINK-1356,45564,53.0422,0.0002708,15.66475437,367.1716307317465,370.8258794567055,1 45564U 20025AK  26174.56507679  .00038578  00000+0  36699-3 0  9994,2 45564  53.0422 282.4181 0002708 355.4517   4.6473 15.66475437342017
STARLINK-1357,45565,53.0424,0.0001981,15.71289815,353.8758368452927,356.5435888129159,1 45565U 20025AL  26174.87038105  .00071742  00000+0  55413-3 0  9997,2 45565  53.0424 237.1154 0001981 162.0730 198.0358 15.71289815342680
STARLINK-1361,45567,53.0413,0.0001677,15.70041594,357.6482416800427,359.90780297853235,1 45567U 20025AN  26174.91668981 -.00075905  00000+0 -61865-3 0  9990,2 45567  53.0413 279.0473 0001677  68.0324 110.0633 15.70041594  5905
STARLINK-1376,45570,53.157,0.0001145,15.39730836,446.1231360045922,447.68607053174037,1 45570U 20025AR  26174.07576892  .00041110  00000+0  10284-2 0  9997,2 45570  53.1570 304.7817 0001145 191.1294 168.9686 15.39730836341683
STARLINK-1320,45572,53.0383,0.000926,15.91715843,291.29945406095794,303.66269873844976,1 45572U 20025AT  26174.72002108  .00162842  20970-4  49429-3 0  9998,2 45572  53.0383 174.6635 0009260  30.1509 330.0048 15.91715843343556
STARLINK-1321,45573,53.0402,0.0001703,15.70440255,356.4907474844849,358.7849523983741,1 45573U 20025AU  26174.91668981 -.00077099  00000+0 -61815-3 0  9998,2 45573  53.0402 262.8772 0001703  71.0657  85.8445 15.70440255  6004
STARLINK-1331,45578,53.0449,0.0001352,15.70188914,357.44585627538254,359.26740415299173,1 45578U 20025AZ  26174.91668981 -.00073331  00000+0 -59369-3 0  9999,2 45578  53.0449 269.8093 0001352  76.6823 297.4796 15.70188914  6000
STARLINK-1333,45580,53.1566,0.0001315,15.36669487,455.06746518865475,456.8648343170389,1 45580U 20025BB  26174.73888433  .00036604  00000+0  10131-2 0  9991,2 45580  53.1566 303.5113 0001315 286.0304  74.0554 15.36669487341760
STARLINK-1335,45581,53.1545,0.0002177,15.3840543,449.33743087476523,452.3107605358364,1 45581U 20025BC  26174.75107791  .00062614  00000+0  16257-2 0  9990,2 45581  53.1545 299.9853 0002177 228.9059 131.1758 15.38405430341800
STARLINK-1337,45582,53.0424,0.0001936,15.76866374,338.02493573961146,340.6259371950109,1 45582U 20025BD  26174.86375560  .00072871  00000+0  44265-3 0  9991,2 45582  53.0424 258.2488 0001936  95.1823 264.9417 15.76866374342373
STARLINK-1347,45586,53.0361,0.0001037,15.70280355,357.3965594994834,358.7936540384271,1 45586U 20025BH  26174.85338096  .00048569  00000+0  39394-3 0  9991,2 45586  53.0361 229.5015 0001037  24.7193 335.3873 15.70280355342770
STARLINK-1364,45589,53.0412,0.0002804,15.71036988,354.0438588556035,357.8203248023019,1 45589U 20025BL  26174.53515619  .00048651  00000+0  38231-3 0  9998,2 45589  53.0412 267.6937 0002804 354.3582   5.7403 15.71036988342211
STARLINK-1365,45590,53.0439,0.0001143,15.66656457,367.7078730561516,369.25014947632644,1 45590U 20025BM  26174.91668981 -.00018503  00000+0 -16816-3 0  9993,2 45590  53.0439 300.9558 0001143  73.6301 182.2286 15.66656457  5991
STARLINK-1443,45660,53.1322,9.88e-05,15.33874881,463.58842052920045,464.9404790556782,1 45660U 20035D   26174.69825707  .00033942  00000+0  10280-2 0  9998,2 45660  53.1322 292.6913 0000988  56.9418 303.1678 15.33874881334982
STARLINK-1446,45663,53.0204,0.0001723,15.48552117,419.7893508666739,422.13231998076026,1 45663U 20035G   26174.41124972  .00024503  00000+0  45914-3 0  9993,2 45663  53.0204 215.1748 0001723 312.4520  47.6341 15.48552117336026
STARLINK-1448,45665,53.0428,0.0001963,15.74296948,345.31246977681167,347.9526142990171,1 45665U 20035J   26174.91668981  .00036647  00000+0  25222-3 0  9995,2 45665  53.0428 253.1764 0001963  70.0442 128.7543 15.74296948  5868
STARLINK-1451,45668,53.0528,3.55e-05,15.14958647,520.8591840028475,521.3490301214488,1 45668U 20035M   26174.66551880  .00020035  00000+0  10749-2 0  9990,2 45668  53.0528 305.7288 0000355 168.5798 191.5203 15.14958647334780
STARLINK-1452,45669,53.0235,0.0007225,15.61686629,377.900044250664,387.66957626648764,1 45669U 20035N   26174.54338290  .00071067  00000+0  80708-3 0  9990,2 45669  53.0235 231.2323 0007225   1.8122 358.2916 15.61686629335810
STARLINK-1453,45670,53.0386,0.0001403,15.74576211,344.8940190987196,346.7807663133135,1 45670U 20035P   26174.91668981  .00103280  00000+0  68915-3 0  9995,2 45670  53.0386 213.4050 0001403  79.4399 327.2874 15.74576211  6023
STARLINK-1454,45671,53.0421,0.0001244,15.72823286,349.9953326656696,351.66950025648566,1 45671U 20035Q   26174.91668981  .00022395  00000+0  16616-3 0  9994,2 45671  53.0421 254.6007 0001244  77.1231 357.3579 15.72823286  5969
STARLINK-1456,45673,53.0413,0.0001154,15.69717698,358.9271748457504,360.48226871513816,1 45673U 20035S   26174.91668981  .00018504  00000+0  15719-3 0  9996,2 45673  53.0413 249.3525 0001154  63.5721 108.5785 15.69717698  6018
STARLINK-1458,45675,53.0446,0.0003551,15.59941345,385.42408538816835,390.22927279305804,1 45675U 20035U   26174.54810850  .00077247  00000+0  93757-3 0  9998,2 45675  53.0446 266.7466 0003551   0.0601   0.0411 15.59941345335282
STARLINK-1460,45676,53.1574,0.0002787,15.36479921,454.62343024568054,458.4330726568396,1 45676U 20035V   26174.58629140  .00029371  00000+0  82074-3 0  9998,2 45676  53.1574 291.4368 0002787 278.9564  81.1124 15.36479921334951
STARLINK-1392,45677,53.1528,0.0002989,15.39913136,444.3261014073314,448.40578926805483,1 45677U 20035W   26174.31012390  .00042123  00000+0  10470-2 0  9993,2 45677  53.1528 290.9910 0002989 302.8028  57.2688 15.39913136334979
STARLINK-1394,45679,53.0387,0.0001212,15.68504491,362.3616175426614,363.9957124598577,1 45679U 20035Y   26174.89378541  .00043029  00000+0  37631-3 0  9996,2 45679  53.0387 239.7970 0001212  75.3809 284.7341 15.68504491335726
STARLINK-1402,45685,53.0386,0.0004221,15.60103918,384.50091771183725,390.2123474364562,1 45685U 20035AE  26174.33779573  .00038262  00000+0  46686-3 0  9995,2 45685  53.0386 234.2136 0004221 290.6748  69.3812 15.60103918335768
STARLINK-1404,45686,53.1544,0.000351,15.4624694,425.32779355965704,430.1055028206856,1 45686U 20035AF  26174.56311749  .00020810  00000+0  42373-3 0  9997,2 45686  53.1544 270.7288 0003510 290.2339  69.8291 15.46246940335281
STARLINK-1413,45689,53.1559,0.0003097,15.36459174,454.47306265509724,458.7064924211054,1 45689U 20035AJ  26174.56063417  .00032154  00000+0  89777-3 0  9999,2 45689  53.1559 276.2096 0003097 307.9780  52.0943 15.36459174335129
STARLINK-1417,45693,53.0513,0.0002805,15.17513379,511.4256253768863,515.2917544589291,1 45693U 20035AN  26174.60535245  .00016057  00000+0  80479-3 0  9996,2 45693  53.0513 292.3728 0002805 199.7753 160.3132 15.17513379334957
STARLINK-1420,45695,53.0435,0.0001665,15.72187529,351.525647272264,353.76699811872186,1 45695U 20035AQ  26174.91668981 -.00019840  00000+0 -14336-3 0  9990,2 45695  53.0435 222.5081 0001665  90.3563 139.1363 15.72187529  6037
STARLINK-1422,45696,53.1559,0.0002998,15.375261,451.37945550153563,455.47566161084615,1 45696U 20035AR  26173.91345648  .00378492  00000+0  96458-2 0  9995,2 45696  53.1559 279.1960 0002998 141.8699 218.2517 15.37526100335108
